OBJECT_NAME,OBJECT_ID,EPOCH,MEAN_MOTION,ECCENTRICITY,INCLINATION,RA_OF_ASC_NODE,ARG_OF_PERICENTER,MEAN_ANOMALY,EPHEMERIS_TYPE,CLASSIFICATION_TYPE,NORAD_CAT_ID,ELEMENT_SET_NO,REV_AT_EPOCH,BSTAR,MEAN_MOTION_DOT,MEAN_MOTION_DDOT
ONEWEB-0605,2022-166AD,2026-06-06T12:58:15.816576,13.21826203,.0002672,87.9262,246.1051,95.6550,264.4889,0,U,54669,999,17010,.38429E-3,.172E-5,0
ONEWEB-0606,2022-166AE,2026-06-06T11:40:44.889024,13.21826431,.00019223,87.9256,246.1284,104.1318,256.0030,0,U,54670,999,17015,.49243815E-4,.33E-6,0
ONEWEB-0607,2022-166AF,2026-06-06T14:30:16.189056,13.21825576,.0001942,87.9265,246.0751,94.4732,265.6624,0,U,54671,999,17014,-.66034E-3,-.26E-5,0
ONEWEB-0608,2022-166AG,2026-06-06T12:50:59.125056,13.21827462,.0002383,87.9266,246.0851,90.4345,269.7062,0,U,54672,999,17014,-.16677E-3,-.56E-6,0
ONEWEB-0610,2022-166AH,2026-06-06T12:21:53.564256,13.21827954,.00023608,87.9257,246.1043,84.7559,275.3844,0,U,54673,999,17004,.13033267E-3,.67E-6,0
ONEWEB-0611,2022-166AJ,2026-06-06T12:12:12.855168,13.21827144,.00020217,87.9255,246.1019,102.7055,257.4305,0,U,54674,999,17003,.12077922E-3,.63E-6,0
ONEWEB-0612,2022-166AK,2026-06-06T12:31:35.775840,13.21824521,.00021343,87.9268,246.0935,96.0803,264.0574,0,U,54675,999,17002,.90946708E-4,.51E-6,0
ONEWEB-0615,2022-166AL,2026-06-06T12:02:32.978976,13.21826279,.0001801,87.9257,246.1132,103.0772,257.0563,0,U,54676,999,17003,.25726694E-3,.119E-5,0
ONEWEB-0655,2022-166AM,2026-06-06T11:28:38.188992,13.21826432,.00018834,87.9259,246.1192,92.8562,267.2787,0,U,54677,999,17002,.7462862E-4,.44E-6,0
ONEWEB-0659,2022-166AN,2026-06-06T11:52:49.289952,13.21826654,.00020385,87.9253,246.1159,100.9063,259.2300,0,U,54678,999,17011,-.36430594E-3,-.137E-5,0
ONEWEB-0685,2022-166AP,2026-06-06T11:53:13.297920,13.21816015,.00019365,87.9327,246.1071,100.5247,259.6105,0,U,54679,999,17000,.98329629E-2,.4075E-4,0
ONEWEB-0712,2022-166AQ,2026-06-06T13:44:18.610368,13.16593594,.0001798,87.9113,230.8822,87.7525,272.3811,0,U,54680,999,17066,.51116E-3,.208E-5,0
ONEWEB-0714,2022-166AR,2026-06-06T12:00:04.977504,13.21843846,.00022775,87.9206,246.1053,90.8254,269.3141,0,U,54681,999,17012,.43960609E-2,.1829E-4,0
ONEWEB-0532,2023-004A,2026-06-06T20:35:22.000128,13.17647731,.0002153,87.9142,7.9201,90.9469,269.1909,0,U,55140,999,16622,-.12275E-4,.8E-7,0
ONEWEB-0533,2023-004B,2026-06-06T18:49:15.350016,13.12442172,.0001908,87.8948,352.7398,83.2586,276.8760,0,U,55141,999,16669,-.46559E-3,-.155E-5,0
ONEWEB-0541,2023-004C,2026-06-06T13:50:56.667264,13.11417844,.0001766,87.8908,23.1683,90.2164,269.9167,0,U,55142,999,16455,-.13519E-2,-.466E-5,0
ONEWEB-0543,2023-004D,2026-06-06T18:27:02.952288,13.18685345,.0001683,87.9158,337.5439,86.5210,273.6115,0,U,55143,999,16832,-.49497E-3,-.182E-5,0
ONEWEB-0544,2023-004E,2026-06-06T18:17:20.909184,13.18685439,.0001651,87.9157,337.5451,94.2257,265.9064,0,U,55144,999,16832,-.2145E-3,-.72E-6,0
ONEWEB-0560,2023-004F,2026-06-06T18:07:38.457408,13.18686509,.0001532,87.9164,337.5360,91.9641,268.1666,0,U,55145,999,16833,.92273E-4,.49E-6,0
ONEWEB-0565,2023-004G,2026-06-06T17:57:54.980064,13.18685764,.0001846,87.9147,337.5655,104.5827,255.5510,0,U,55146,999,16832,-.20058E-3,-.66E-6,0
ONEWEB-0567,2023-004H,2026-06-06T17:48:12.762432,13.18685820,.00017,87.9157,337.5503,102.0493,258.0830,0,U,55147,999,16832,-.42282E-5,.11E-6,0
ONEWEB-0569,2023-004J,2026-06-06T17:22:45.856704,13.13469593,.0001162,87.8954,322.3030,119.6875,240.4370,0,U,55148,999,16880,-.49409E-3,-.168E-5,0
ONEWEB-0570,2023-004K,2026-06-06T17:36:02.981376,13.18685326,.0002165,87.9155,337.5499,97.2829,262.8549,0,U,55149,999,16831,.17886E-3,.83E-6,0
ONEWEB-0571,2023-004L,2026-06-06T17:26:21.143904,13.18678388,.0001766,87.9156,337.5507,129.0864,231.0425,0,U,55150,999,16832,-.26664E-2,-.1038E-4,0
ONEWEB-0572,2023-004M,2026-06-06T14:01:42.483072,13.17647617,.0001828,87.9142,7.9746,92.3044,267.8297,0,U,55151,999,16608,.63997E-5,.15E-6,0
ONEWEB-0573,2023-004N,2026-06-06T19:05:54.115008,13.18685796,.0001788,87.9157,337.5383,119.6638,240.4672,0,U,55152,999,16832,-.29957E-3,-.105E-5,0
ONEWEB-0588,2023-004P,2026-06-06T18:56:10.688640,13.18685971,.0002223,87.9155,337.5401,100.4419,259.6964,0,U,55153,999,16832,-.18123E-3,-.59E-6,0
ONEWEB-0598,2023-004Q,2026-06-06T20:38:40.979328,13.11415365,.0001299,87.8895,23.1245,105.5136,254.6135,0,U,55154,999,16454,.47675E-3,.182E-5,0
ONEWEB-0599,2023-004R,2026-06-06T20:23:13.014816,13.17647989,.0001602,87.9144,7.9215,83.4850,276.6464,0,U,55155,999,16612,-.43565E-4,-.4E-7,0
ONEWEB-0614,2023-004S,2026-06-06T20:31:21.383040,13.11416312,.0001985,87.8898,23.1341,83.5420,276.5934,0,U,55156,999,16448,.94472E-3,.348E-5,0
