ONEWEB-0605             
1 54669U 22166AD  26157.54046084  .00000172  00000+0  38429-3 0  9997
2 54669  87.9262 246.1051 0002672  95.6550 264.4889 13.21826203170100
ONEWEB-0606             
1 54670U 22166AE  26157.48663066  .00000033  00000+0  49244-4 0  9991
2 54670  87.9256 246.1284 0001922 104.1318 256.0030 13.21826431170151
ONEWEB-0607             
1 54671U 22166AF  26157.60435404 -.00000260  00000+0 -66034-3 0  9998
2 54671  87.9265 246.0751 0001942  94.4732 265.6624 13.21825576170146
ONEWEB-0608             
1 54672U 22166AG  26157.53540654 -.00000056  00000+0 -16677-3 0  9996
2 54672  87.9266 246.0851 0002383  90.4345 269.7062 13.21827462170142
ONEWEB-0610             
1 54673U 22166AH  26157.51520329  .00000067  00000+0  13033-3 0  9995
2 54673  87.9257 246.1043 0002360  84.7559 275.3844 13.21827954170041
ONEWEB-0611             
1 54674U 22166AJ  26157.50848212  .00000063  00000+0  12078-3 0  9993
2 54674  87.9255 246.1019 0002021 102.7055 257.4305 13.21827144170032
ONEWEB-0612             
1 54675U 22166AK  26157.52194185  .00000051  00000+0  90947-4 0  9998
2 54675  87.9268 246.0935 0002134  96.0803 264.0574 13.21824521170021
ONEWEB-0615             
1 54676U 22166AL  26157.50177059  .00000119  00000+0  25727-3 0  9996
2 54676  87.9257 246.1132 0001801 103.0772 257.0563 13.21826279170037
ONEWEB-0655             
1 54677U 22166AM  26157.47821978  .00000044  00000+0  74629-4 0  9992
2 54677  87.9259 246.1192 0001883  92.8562 267.2787 13.21826432170029
ONEWEB-0659             
1 54678U 22166AN  26157.49501493 -.00000137  00000+0 -36431-3 0  9995
2 54678  87.9253 246.1159 0002038 100.9063 259.2300 13.21826654170115
ONEWEB-0685             
1 54679U 22166AP  26157.49529280  .00004075  00000+0  98330-2 0  9998
2 54679  87.9327 246.1071 0001936 100.5247 259.6105 13.21816015170002
ONEWEB-0712             
1 54680U 22166AQ  26157.57243762  .00000208  00000+0  51116-3 0  9993
2 54680  87.9113 230.8822 0001798  87.7525 272.3811 13.16593594170668
ONEWEB-0714             
1 54681U 22166AR  26157.50005761  .00001829  00000+0  43961-2 0  9990
2 54681  87.9206 246.1053 0002277  90.8254 269.3141 13.21843846170122
ONEWEB-0532             
1 55140U 23004A   26157.85789352  .00000008  00000+0 -12275-4 0  9991
2 55140  87.9142   7.9201 0002153  90.9469 269.1909 13.17647731166228
ONEWEB-0533             
1 55141U 23004B   26157.78420544 -.00000155  00000+0 -46559-3 0  9994
2 55141  87.8948 352.7398 0001908  83.2586 276.8760 13.12442172166690
ONEWEB-0541             
1 55142U 23004C   26157.57704476 -.00000466  00000+0 -13519-2 0  9995
2 55142  87.8908  23.1683 0001766  90.2164 269.9167 13.11417844164559
ONEWEB-0543             
1 55143U 23004D   26157.76878417 -.00000182  00000+0 -49497-3 0  9994
2 55143  87.9158 337.5439 0001683  86.5210 273.6115 13.18685345168321
ONEWEB-0544             
1 55144U 23004E   26157.76204756 -.00000072  00000+0 -21450-3 0  9991
2 55144  87.9157 337.5451 0001651  94.2257 265.9064 13.18685439168328
ONEWEB-0560             
1 55145U 23004F   26157.75530622  .00000049  00000+0  92273-4 0  9999
2 55145  87.9164 337.5360 0001532  91.9641 268.1666 13.18686509168338
ONEWEB-0565             
1 55146U 23004G   26157.74855301 -.00000066  00000+0 -20058-3 0  9995
2 55146  87.9147 337.5655 0001846 104.5827 255.5510 13.18685764168321
ONEWEB-0567             
1 55147U 23004H   26157.74181438  .00000011  00000+0 -42282-5 0  9993
2 55147  87.9157 337.5503 0001700 102.0493 258.0830 13.18685820168322
ONEWEB-0569             
1 55148U 23004J   26157.72414186 -.00000168  00000+0 -49409-3 0  9991
2 55148  87.8954 322.3030 0001162 119.6875 240.4370 13.13469593168803
ONEWEB-0570             
1 55149U 23004K   26157.73336784  .00000083  00000+0  17886-3 0  9998
2 55149  87.9155 337.5499 0002165  97.2829 262.8549 13.18685326168310
ONEWEB-0571             
1 55150U 23004L   26157.72663361 -.00001038  00000+0 -26664-2 0  9999
2 55150  87.9156 337.5507 0001766 129.0864 231.0425 13.18678388168324
ONEWEB-0572             
1 55151U 23004M   26157.58451948  .00000015  00000+0  63997-5 0  9995
2 55151  87.9142   7.9746 0001828  92.3044 267.8297 13.17647617166089
ONEWEB-0573             
1 55152U 23004N   26157.79576522 -.00000105  00000+0 -29957-3 0  9993
2 55152  87.9157 337.5383 0001788 119.6638 240.4672 13.18685796168326
ONEWEB-0588             
1 55153U 23004P   26157.78901260 -.00000059  00000+0 -18123-3 0  9995
2 55153  87.9155 337.5401 0002223 100.4419 259.6964 13.18685971168327
ONEWEB-0598             
1 55154U 23004Q   26157.86019652  .00000182  00000+0  47675-3 0  9999
2 55154  87.8895  23.1245 0001299 105.5136 254.6135 13.11415365164542
ONEWEB-0599             
1 55155U 23004R   26157.84945619 -.00000004  00000+0 -43565-4 0  9999
2 55155  87.9144   7.9215 0001602  83.4850 276.6464 13.17647989166123
ONEWEB-0614             
1 55156U 23004S   26157.85510860  .00000348  00000+0  94472-3 0  9998
2 55156  87.8898  23.1341 0001985  83.5420 276.5934 13.11416312164483
